OBJECT_NAME,OBJECT_ID,EPOCH,MEAN_MOTION,ECCENTRICITY,INCLINATION,RA_OF_ASC_NODE,ARG_OF_PERICENTER,MEAN_ANOMALY,EPHEMERIS_TYPE,CLASSIFICATION_TYPE,NORAD_CAT_ID,ELEMENT_SET_NO,REV_AT_EPOCH,BSTAR,MEAN_MOTION_DOT,MEAN_MOTION_DDOT
AII-BRAVO,2021-034C,2026-05-09T22:45:25.663680,15.03184996,.00071092,97.5658,185.7340,52.7698,307.4175,0,U,48270,999,27387,.20825407E-3,.2757E-4,0
TYVAK-182A,2021-034D,2026-05-09T17:25:48.688608,15.05794503,.00073242,97.5735,189.3174,101.9245,258.2803,0,U,48271,999,27404,.25056071E-3,.3572E-4,0
CSS (TIANHE),2021-035A,2026-05-09T21:33:07.301088,15.62098053,.0004388,41.4655,194.9172,281.1399,78.8947,0,U,48274,999,28718,.16155037E-3,.14256E-3,0
TYVAK-0130,2021-041BF,2026-05-09T12:02:35.118240,15.27035293,.00110807,52.9925,205.6664,52.9396,307.2613,0,U,48606,999,27447,.19555156E-3,.4916E-4,0
HAIYANG-2D,2021-043A,2026-05-09T23:25:47.954208,13.83371903,.00114027,66.0000,39.8322,273.7004,86.2760,0,U,48621,999,25126,-.9613958E-4,-.187E-5,0
TYVAK-0173,2021-059P,2026-05-09T18:35:21.768000,14.81759482,.00100833,96.0084,215.6817,150.2207,209.9586,0,U,48892,999,26255,.17437417E-3,.1344E-4,0
MANDRAKE 2 ABLE,2021-059AE,2026-05-09T11:28:55.615008,15.53452313,.00062258,97.7051,316.3591,127.3149,232.8672,0,U,48907,999,27111,.28785035E-3,.18167E-3,0
MANDRAKE 2 BAKER,2021-059AF,2026-05-09T23:13:59.774880,15.57657610,.00048395,97.7030,319.5020,123.8520,236.3196,0,U,48908,999,27134,.24360661E-3,.17925E-3,0
PACE-1,2021-059AG,2026-05-09T12:04:13.306656,15.74100555,.00030658,97.6807,323.4684,109.3041,250.8554,0,U,48909,999,27170,.36337242E-3,.51911E-3,0
YAM-3,2021-059AN,2026-05-09T17:41:44.058336,15.47709243,.0006408,97.7004,314.2075,127.5923,232.5909,0,U,48915,999,27104,.17261745E-3,.8836E-4,0
FARADAY_PHOENIX,2021-059AX,2026-05-09T19:31:00.892128,15.70216745,.00053334,97.6861,323.8483,120.1461,240.0330,0,U,48924,999,27162,.61360565E-3,.7475E-3,0
DEMO8 (TENZING),2021-059CA,2026-05-09T19:18:48.034368,15.53547509,.00082787,97.7052,320.3453,122.3886,237.8169,0,U,48951,999,27134,.24288308E-3,.15369E-3,0
NAPA-2,2021-059CN,2026-05-09T18:17:31.722144,15.84247702,.00025227,97.6788,323.9308,128.6520,231.4975,0,U,48963,999,27170,.53043225E-3,.120689E-2,0
FENGYUN 3E,2021-062A,2026-05-10T00:12:20.142144,14.19899669,.00015718,98.7507,133.8425,154.8718,205.2535,0,U,49008,999,25116,-.10736563E-3,-.272E-5,0
ISS (NAUKA),2021-066A,2026-05-09T21:02:18.093984,15.49166035,.00074525,51.6310,129.7415,41.7114,318.4441,0,U,49044,999,56516,.1308143E-3,.6807E-4,0
STARLINK-3100,2021-082Q,2026-05-09T10:52:20.413920,14.98329089,.0003915,69.9986,141.2405,267.5393,92.5318,0,U,49144,999,25508,.4519182E-4,.446E-5,0
CUTE,2021-088D,2026-05-09T19:11:27.465216,15.77712550,.00011481,97.4186,225.8734,290.2232,69.8911,0,U,49263,999,25647,.81906706E-3,.138523E-2,0
2021-091B,2021-091B,2026-05-09T23:17:35.342016,15.18360955,.00136067,97.4489,318.1321,166.9579,193.2010,0,U,49316,999,25318,.14362094E-3,.2889E-4,0
SDGSAT 1,2021-100A,2026-05-09T23:28:39.162720,15.19731050,.00098072,97.2666,178.3422,71.7655,288.4647,0,U,49387,999,25011,.84324961E-4,.1738E-4,0
TEIKYOSAT-4 (OORURI),2021-102B,2026-05-09T19:17:40.539552,15.09370351,.00136348,97.3701,160.7778,68.6951,291.5732,0,U,49396,999,24693,.7760121E-4,.1181E-4,0
Z-SAT,2021-102E,2026-05-09T23:14:11.338656,15.17974836,.00173517,97.3359,166.4533,26.5264,333.6855,0,U,49399,999,24764,.16059172E-3,.3208E-4,0
HIBARI,2021-102F,2026-05-09T20:15:33.187104,15.30962441,.00107188,97.3272,176.2015,345.5556,14.5378,0,U,49400,999,24832,.24495997E-3,.7264E-4,0
KOSEN-1,2021-102H,2026-05-09T22:13:58.492416,15.26309539,.00131136,97.3221,172.8363,350.5257,9.5732,0,U,49402,999,24818,.2089655E-3,.5363E-4,0
GLOBAL-14,2021-106A,2026-05-09T19:15:06.629184,15.48810939,.00138441,42.0034,158.8660,119.6137,240.6087,0,U,49469,999,25217,.29754246E-3,.1619E-3,0
GAOFEN-3 02,2021-109A,2026-05-09T23:02:54.845664,14.42211646,.00039334,98.4106,138.5991,98.2345,261.9291,0,U,49495,999,23480,-.20518084E-4,-.111E-5,0
GLOBAL-12,2021-115BA,2026-05-09T19:59:34.926432,15.51551616,.00018862,53.1950,228.6405,311.6102,48.4747,0,U,49772,999,24994,.3900306E-3,.23097E-3,0
GLOBAL-13,2021-115BB,2026-05-09T15:18:12.052800,15.44703177,.00028837,53.1972,237.6353,19.1800,340.9315,0,U,49773,999,24980,.33385453E-3,.15438E-3,0
GLOBAL-17,2021-120A,2026-05-09T14:05:43.520064,15.50366612,.00135334,41.9956,278.9494,337.5850,22.4401,0,U,49949,999,24890,.35598206E-3,.20553E-3,0
GLOBAL-16,2021-120B,2026-05-09T10:08:10.226112,15.48467555,.00118288,41.9959,282.9729,326.2924,33.7166,0,U,49950,999,24883,.39727308E-3,.21453E-3,0
