AII-BRAVO               
1 48270U 21034C   26129.94821370  .00002757  00000+0  20825-3 0  9995
2 48270  97.5658 185.7340 0007109  52.7698 307.4175 15.03184996273875
TYVAK-182A              
1 48271U 21034D   26129.72625797  .00003572  00000+0  25056-3 0  9994
2 48271  97.5735 189.3174 0007324 101.9245 258.2803 15.05794503274045
CSS (TIANHE)            
1 48274U 21035A   26129.89800117  .00014256  00000+0  16155-3 0  9998
2 48274  41.4655 194.9172 0004388 281.1399  78.8947 15.62098053287189
TYVAK-0130              
1 48606U 21041BF  26129.50179535  .00004916  00000+0  19555-3 0  9994
2 48606  52.9925 205.6664 0011080  52.9396 307.2613 15.27035293274474
HAIYANG-2D              
1 48621U 21043A   26129.97624947 -.00000187  00000+0 -96140-4 0  9990
2 48621  66.0000  39.8322 0011402 273.7004  86.2760 13.83371903251266
TYVAK-0173              
1 48892U 21059P   26129.77455750  .00001344  00000+0  17437-3 0  9994
2 48892  96.0084 215.6817 0010083 150.2207 209.9586 14.81759482262557
MANDRAKE 2 ABLE         
1 48907U 21059AE  26129.47842147  .00018167  00000+0  28785-3 0  9997
2 48907  97.7051 316.3591 0006225 127.3149 232.8672 15.53452313271113
MANDRAKE 2 BAKER        
1 48908U 21059AF  26129.96805295  .00017925  00000+0  24361-3 0  9992
2 48908  97.7030 319.5020 0004839 123.8520 236.3196 15.57657610271342
PACE-1                  
1 48909U 21059AG  26129.50293179  .00051911  00000+0  36337-3 0  9994
2 48909  97.6807 323.4684 0003065 109.3041 250.8554 15.74100555271700
YAM-3                   
1 48915U 21059AN  26129.73731549  .00008836  00000+0  17262-3 0  9998
2 48915  97.7004 314.2075 0006408 127.5923 232.5909 15.47709243271041
FARADAY_PHOENIX         
1 48924U 21059AX  26129.81320477  .00074750  00000+0  61361-3 0  9998
2 48924  97.6861 323.8483 0005333 120.1461 240.0330 15.70216745271624
DEMO8 (TENZING)         
1 48951U 21059CA  26129.80472262  .00015369  00000+0  24288-3 0  9995
2 48951  97.7052 320.3453 0008278 122.3886 237.8169 15.53547509271341
NAPA-2                  
1 48963U 21059CN  26129.76217271  .00120689  00000+0  53043-3 0  9993
2 48963  97.6788 323.9308 0002522 128.6520 231.4975 15.84247702271708
FENGYUN 3E              
1 49008U 21062A   26130.00856646 -.00000272  00000+0 -10737-3 0  9992
2 49008  98.7507 133.8425 0001571 154.8718 205.2535 14.19899669251162
ISS (NAUKA)             
1 49044U 21066A   26129.87659831  .00006807  00000+0  13081-3 0  9999
2 49044  51.6310 129.7415 0007452  41.7114 318.4441 15.49166035565162
STARLINK-3100           
1 49144U 21082Q   26129.45301405  .00000446  00000+0  45192-4 0  9995
2 49144  69.9986 141.2405 0003915 267.5393  92.5318 14.98329089255082
CUTE                    
1 49263U 21088D   26129.79962344  .00138523  00000+0  81907-3 0  9996
2 49263  97.4186 225.8734 0001148 290.2232  69.8911 15.77712550256474
2021-091B               
1 49316U 21091B   26129.97054794  .00002889  00000+0  14362-3 0  9996
2 49316  97.4489 318.1321 0013606 166.9579 193.2010 15.18360955253182
SDGSAT 1                
1 49387U 21100A   26129.97823105  .00001738  00000+0  84325-4 0  9994
2 49387  97.2666 178.3422 0009807  71.7655 288.4647 15.19731050250111
TEIKYOSAT-4 (OORURI)    
1 49396U 21102B   26129.80394143  .00001181  00000+0  77601-4 0  9994
2 49396  97.3701 160.7778 0013634  68.6951 291.5732 15.09370351246935
Z-SAT                   
1 49399U 21102E   26129.96818679  .00003208  00000+0  16059-3 0  9990
2 49399  97.3359 166.4533 0017351  26.5264 333.6855 15.17974836247649
HIBARI                  
1 49400U 21102F   26129.84413411  .00007264  00000+0  24496-3 0  9995
2 49400  97.3272 176.2015 0010718 345.5556  14.5378 15.30962441248323
KOSEN-1                 
1 49402U 21102H   26129.92637144  .00005363  00000+0  20897-3 0  9996
2 49402  97.3221 172.8363 0013113 350.5257   9.5732 15.26309539248183
GLOBAL-14               
1 49469U 21106A   26129.80216006  .00016190  00000+0  29754-3 0  9991
2 49469  42.0034 158.8660 0013844 119.6137 240.6087 15.48810939252171
GAOFEN-3 02             
1 49495U 21109A   26129.96035701 -.00000111  00000+0 -20518-4 0  9999
2 49495  98.4106 138.5991 0003933  98.2345 261.9291 14.42211646234804
GLOBAL-12               
1 49772U 21115BA  26129.83304313  .00023097  00000+0  39003-3 0  9992
2 49772  53.1950 228.6405 0001886 311.6102  48.4747 15.51551616249946
GLOBAL-13               
1 49773U 21115BB  26129.63763950  .00015438  00000+0  33385-3 0  9994
2 49773  53.1972 237.6353 0002883  19.1800 340.9315 15.44703177249805
GLOBAL-17               
1 49949U 21120A   26129.58730926  .00020553  00000+0  35598-3 0  9998
2 49949  41.9956 278.9494 0013533 337.5850  22.4401 15.50366612248901
GLOBAL-16               
1 49950U 21120B   26129.42234058  .00021453  00000+0  39727-3 0  9996
2 49950  41.9959 282.9729 0011828 326.2924  33.7166 15.48467555248834
